{"type": "FeatureCollection", "features": [ {"type": "Feature", "properties": {"norad_id": 39122, "name": "EUTELSAT 117 WEST A", "group": "eutelsat", "lat": -0.0302921720024617, "lon": -101.41762453192821, "alt_km": 35775.07350066452, "timestamp": "2025-12-26T18:39:31.943753+00:00", "meta": {"OBJECT_NAME": "EUTELSAT 117 WEST A", "OBJECT_ID": "2013-012A", "EPOCH": "2025-12-26T14:11:16.512576", "MEAN_MOTION": 1.00270803, "ECCENTRICITY": 0.00028469, "INCLINATION": 0.0157, "RA_OF_ASC_NODE": 330.547, "ARG_OF_PERICENTER": 308.5899, "MEAN_ANOMALY": 272.217, "EPHEMERIS_TYPE": 0, "CLASSIFICATION_TYPE": "U", "NORAD_CAT_ID": 39122, "ELEMENT_SET_NO": 999, "REV_AT_EPOCH": 4670, "BSTAR": 0, "MEAN_MOTION_DOT": 9e-08, "MEAN_MOTION_DDOT": 0}, "tle": {"line1": "1 39122U 13012A   25360.59116334  .00000009  00000+0  00000+0 0  9999", "line2": "2 39122   0.0157 330.5470 0002846 308.5899 272.2170  1.00270803 46705"}}, "geometry": {"type": "Point", "coordinates": [-101.41762453192821, -0.0302921720024617]}}, {"type": "Feature", "properties": {"norad_id": 39163, "name": "EUTELSAT 7B", "group": "eutelsat", "lat": 0.016203173604161954, "lon": 22.434082803190694, "alt_km": 35776.219280490266, "timestamp": "2025-12-26T18:39:31.943767+00:00", "meta": {"OBJECT_NAME": "EUTELSAT 7B", "OBJECT_ID": "2013-022A", "EPOCH": "2025-12-26T08:51:38.739168", "MEAN_MOTION": 1.00271815, "ECCENTRICITY": 0.00047181, "INCLINATION": 0.0666, "RA_OF_ASC_NODE": 12.0633, "ARG_OF_PERICENTER": 310.169, "MEAN_ANOMALY": 272.7878, "EPHEMERIS_TYPE": 0, "CLASSIFICATION_TYPE": "U", "NORAD_CAT_ID": 39163, "ELEMENT_SET_NO": 999, "REV_AT_EPOCH": 4621, "BSTAR": 0, "MEAN_MOTION_DOT": 7e-07, "MEAN_MOTION_DDOT": 0}, "tle": {"line1": "1 39163U 13022A   25360.36919837  .00000070  00000+0  00000+0 0  9997", "line2": "2 39163   0.0666  12.0633 0004718 310.1690 272.7878  1.00271815 46216"}}, "geometry": {"type": "Point", "coordinates": [22.434082803190694, 0.016203173604161954]}}, {"type": "Feature", "properties": {"norad_id": 39612, "name": "EXPRESS-AT1", "group": "eutelsat", "lat": 0.015758272468888092, "lon": 71.3950190020103, "alt_km": 35783.05798186122, "timestamp": "2025-12-26T18:39:31.943780+00:00", "meta": {"OBJECT_NAME": "EXPRESS-AT1", "OBJECT_ID": "2014-010A", "EPOCH": "2025-12-26T04:01:38.790048", "MEAN_MOTION": 1.00275867, "ECCENTRICITY": 0.00013564, "INCLINATION": 0.0174, "RA_OF_ASC_NODE": 279.8877, "ARG_OF_PERICENTER": 223.1198, "MEAN_ANOMALY": 68.3278, "EPHEMERIS_TYPE": 0, "CLASSIFICATION_TYPE": "U", "NORAD_CAT_ID": 39612, "ELEMENT_SET_NO": 999, "REV_AT_EPOCH": 4308, "BSTAR": 0, "MEAN_MOTION_DOT": 1e-06, "MEAN_MOTION_DDOT": 0}, "tle": {"line1": "1 39612U 14010A   25360.16781007  .00000100  00000+0  00000+0 0  9992", "line2": "2 39612   0.0174 279.8877 0001356 223.1198  68.3278  1.00275867 43089"}}, "geometry": {"type": "Point", "coordinates": [71.3950190020103, 0.015758272468888092]}}, {"type": "Feature", "properties": {"norad_id": 39613, "name": "EXPRESS-AT2", "group": "eutelsat", "lat": 0.0007999364642594626, "lon": 155.23821542768715, "alt_km": 35789.63505689342, "timestamp": "2025-12-26T18:39:31.943800+00:00", "meta": {"OBJECT_NAME": "EXPRESS-AT2", "OBJECT_ID": "2014-010B", "EPOCH": "2025-12-26T12:18:38.668320", "MEAN_MOTION": 1.00271236, "ECCENTRICITY": 0.0001659, "INCLINATION": 0.0153, "RA_OF_ASC_NODE": 313.7509, "ARG_OF_PERICENTER": 320.1306, "MEAN_ANOMALY": 145.8986, "EPHEMERIS_TYPE": 0, "CLASSIFICATION_TYPE": "U", "NORAD_CAT_ID": 39613, "ELEMENT_SET_NO": 999, "REV_AT_EPOCH": 4276, "BSTAR": 0, "MEAN_MOTION_DOT": -2.59e-06, "MEAN_MOTION_DDOT": 0}, "tle": {"line1": "1 39613U 14010B   25360.51294755 -.00000259  00000+0  00000+0 0  9997", "line2": "2 39613   0.0153 313.7509 0001659 320.1306 145.8986  1.00271236 42769"}}, "geometry": {"type": "Point", "coordinates": [155.23821542768715, 0.0007999364642594626]}}, {"type": "Feature", "properties": {"norad_id": 39773, "name": "EUTELSAT 3B", "group": "eutelsat", "lat": 0.03031256449280802, "lon": 18.516876868929568, "alt_km": 35800.86242306971, "timestamp": "2025-12-26T18:39:31.943812+00:00", "meta": {"OBJECT_NAME": "EUTELSAT 3B", "OBJECT_ID": "2014-030A", "EPOCH": "2025-12-26T08:51:38.739168", "MEAN_MOTION": 1.00270297, "ECCENTRICITY": 0.00042981, "INCLINATION": 0.06, "RA_OF_ASC_NODE": 352.4178, "ARG_OF_PERICENTER": 243.3494, "MEAN_ANOMALY": 355.3551, "EPHEMERIS_TYPE": 0, "CLASSIFICATION_TYPE": "U", "NORAD_CAT_ID": 39773, "ELEMENT_SET_NO": 999, "REV_AT_EPOCH": 4233, "BSTAR": 0, "MEAN_MOTION_DOT": 4.2e-07, "MEAN_MOTION_DDOT": 0}, "tle": {"line1": "1 39773U 14030A   25360.36919837  .00000042  00000+0  00000+0 0  9993", "line2": "2 39773   0.0600 352.4178 0004298 243.3494 355.3551  1.00270297 42336"}}, "geometry": {"type": "Point", "coordinates": [18.516876868929568, 0.03031256449280802]}}, {"type": "Feature", "properties": {"norad_id": 40425, "name": "EUTELSAT 115 WEST B", "group": "eutelsat", "lat": 0.005834030299300752, "lon": -99.51088132316384, "alt_km": 35785.82895805386, "timestamp": "2025-12-26T18:39:31.943824+00:00", "meta": {"OBJECT_NAME": "EUTELSAT 115 WEST B", "OBJECT_ID": "2015-010B", "EPOCH": "2025-12-26T05:44:38.581152", "MEAN_MOTION": 1.00273604, "ECCENTRICITY": 7.8e-06, "INCLINATION": 0.0077, "RA_OF_ASC_NODE": 147.8651, "ARG_OF_PERICENTER": 258.8043, "MEAN_ANOMALY": 19.571, "EPHEMERIS_TYPE": 0, "CLASSIFICATION_TYPE": "U", "NORAD_CAT_ID": 40425, "ELEMENT_SET_NO": 999, "REV_AT_EPOCH": 3965, "BSTAR": 0, "MEAN_MOTION_DOT": -3e-08, "MEAN_MOTION_DDOT": 0}, "tle": {"line1": "1 40425U 15010B   25360.23933543 -.00000003  00000+0  00000+0 0  9992", "line2": "2 40425   0.0077 147.8651 0000078 258.8043  19.5710  1.00273604 39657"}}, "geometry": {"type": "Point", "coordinates": [-99.51088132316384, 0.005834030299300752]}}, {"type": "Feature", "properties": {"norad_id": 40875, "name": "EUTELSAT 8 WEST B", "group": "eutelsat", "lat": -0.005264779550447006, "lon": 7.438695854704394, "alt_km": 35786.752927316185, "timestamp": "2025-12-26T18:39:31.943840+00:00", "meta": {"OBJECT_NAME": "EUTELSAT 8 WEST B", "OBJECT_ID": "2015-039B", "EPOCH": "2025-12-26T06:08:50.644608", "MEAN_MOTION": 1.00271377, "ECCENTRICITY": 0.00042085, "INCLINATION": 0.0651, "RA_OF_ASC_NODE": 11.4179, "ARG_OF_PERICENTER": 264.1892, "MEAN_ANOMALY": 263.6052, "EPHEMERIS_TYPE": 0, "CLASSIFICATION_TYPE": "U", "NORAD_CAT_ID": 40875, "ELEMENT_SET_NO": 999, "REV_AT_EPOCH": 3792, "BSTAR": 0, "MEAN_MOTION_DOT": -4.4e-07, "MEAN_MOTION_DDOT": 0}, "tle": {"line1": "1 40875U 15039B   25360.25614172 -.00000044  00000+0  00000+0 0  9993", "line2": "2 40875   0.0651  11.4179 0004208 264.1892 263.6052  1.00271377 37920"}}, "geometry": {"type": "Point", "coordinates": [7.438695854704394, -0.005264779550447006]}}, {"type": "Feature", "properties": {"norad_id": 41310, "name": "EUTELSAT 9B", "group": "eutelsat", "lat": -0.009145820700040611, "lon": 24.436280627729346, "alt_km": 35792.99081715589, "timestamp": "2025-12-26T18:39:31.943852+00:00", "meta": {"OBJECT_NAME": "EUTELSAT 9B", "OBJECT_ID": "2016-005A", "EPOCH": "2025-12-26T08:43:38.554752", "MEAN_MOTION": 1.00269907, "ECCENTRICITY": 0.00047283, "INCLINATION": 0.0277, "RA_OF_ASC_NODE": 48.2901, "ARG_OF_PERICENTER": 227.4289, "MEAN_ANOMALY": 319.2953, "EPHEMERIS_TYPE": 0, "CLASSIFICATION_TYPE": "U", "NORAD_CAT_ID": 41310, "ELEMENT_SET_NO": 999, "REV_AT_EPOCH": 3638, "BSTAR": 0, "MEAN_MOTION_DOT": 8.3e-07, "MEAN_MOTION_DDOT": 0}, "tle": {"line1": "1 41310U 16005A   25360.36364068  .00000083  00000+0  00000+0 0  9992", "line2": "2 41310   0.0277  48.2901 0004728 227.4289 319.2953  1.00269907 36382"}}, "geometry": {"type": "Point", "coordinates": [24.436280627729346, -0.009145820700040611]}}, {"type": "Feature", "properties": {"norad_id": 41382, "name": "EUTELSAT 65 WEST A", "group": "eutelsat", "lat": -0.043471106676628124, "lon": -49.77272962578459, "alt_km": 35777.73840163439, "timestamp": "2025-12-26T18:39:31.943864+00:00", "meta": {"OBJECT_NAME": "EUTELSAT 65 WEST A", "OBJECT_ID": "2016-014A", "EPOCH": "2025-12-26T08:16:36.677280", "MEAN_MOTION": 1.00271228, "ECCENTRICITY": 0.00023733, "INCLINATION": 0.0477, "RA_OF_ASC_NODE": 347.1965, "ARG_OF_PERICENTER": 291.4205, "MEAN_ANOMALY": 235.4476, "EPHEMERIS_TYPE": 0, "CLASSIFICATION_TYPE": "U", "NORAD_CAT_ID": 41382, "ELEMENT_SET_NO": 999, "REV_AT_EPOCH": 3580, "BSTAR": 0, "MEAN_MOTION_DOT": -2.54e-06, "MEAN_MOTION_DDOT": 0}, "tle": {"line1": "1 41382U 16014A   25360.34486895 -.00000254  00000+0  00000+0 0  9993", "line2": "2 41382   0.0477 347.1965 0002373 291.4205 235.4476  1.00271228 35801"}}, "geometry": {"type": "Point", "coordinates": [-49.77272962578459, -0.043471106676628124]}}, {"type": "Feature", "properties": {"norad_id": 41589, "name": "EUTELSAT 117 WEST B", "group": "eutelsat", "lat": 0.02129631505461225, "lon": -101.61423184212867, "alt_km": 35785.5300789764, "timestamp": "2025-12-26T18:39:31.943875+00:00", "meta": {"OBJECT_NAME": "EUTELSAT 117 WEST B", "OBJECT_ID": "2016-038B", "EPOCH": "2025-12-26T14:11:16.512576", "MEAN_MOTION": 1.00272826, "ECCENTRICITY": 6.01e-06, "INCLINATION": 0.0412, "RA_OF_ASC_NODE": 183.3405, "ARG_OF_PERICENTER": 69.2991, "MEAN_ANOMALY": 298.5047, "EPHEMERIS_TYPE": 0, "CLASSIFICATION_TYPE": "U", "NORAD_CAT_ID": 41589, "ELEMENT_SET_NO": 999, "REV_AT_EPOCH": 3493, "BSTAR": 0, "MEAN_MOTION_DOT": 1e-07, "MEAN_MOTION_DDOT": 0}, "tle": {"line1": "1 41589U 16038B   25360.59116334  .00000010  00000+0  00000+0 0  9992", "line2": "2 41589   0.0412 183.3405 0000060  69.2991 298.5047  1.00272826 34934"}}, "geometry": {"type": "Point", "coordinates": [-101.61423184212867, 0.02129631505461225]}}]}